[{"OBJECT_NAME":"STARLINK-4351","OBJECT_ID":"2022-084E","EPOCH":"2026-03-09T17:06:04.691520","MEAN_MOTION":15.01258627,"ECCENTRICITY":0.00020831,"INCLINATION":97.6036,"RA_OF_ASC_NODE":130.2379,"ARG_OF_PERICENTER":87.3881,"MEAN_ANOMALY":272.7581,"EPHEMERIS_TYPE":0,"CLASSIFICATION_TYPE":"U","NORAD_CAT_ID":53193,"ELEMENT_SET_NO":999,"REV_AT_EPOCH":20033,"BSTAR":4.5803103e-5,"MEAN_MOTION_DOT":5.3e-6,"MEAN_MOTION_DDOT":0},{"OBJECT_NAME":"FREGAT DEB","OBJECT_ID":"2011-037BE","EPOCH":"2026-03-09T21:24:03.031200","MEAN_MOTION":11.75099082,"ECCENTRICITY":0.15024163,"INCLINATION":51.526,"RA_OF_ASC_NODE":313.7686,"ARG_OF_PERICENTER":181.6458,"MEAN_ANOMALY":177.904,"EPHEMERIS_TYPE":0,"CLASSIFICATION_TYPE":"U","NORAD_CAT_ID":45820,"ELEMENT_SET_NO":999,"REV_AT_EPOCH":24182,"BSTAR":0.0047567833,"MEAN_MOTION_DOT":7.781e-5,"MEAN_MOTION_DDOT":0}]
